{
  "type": "FeatureCollection",
  "features": [
    {
      "type": "Feature",
      "properties": {
        "norad_id": 30004,
        "name": "FENGYUN 1C DEB",
        "group": "fengyun-1c-debris",
        "lat": -69.68943258700158,
        "lon": -26.250437415635602,
        "alt_km": 827.8552936034403,
        "timestamp": "2025-12-24T05:51:19.881554+00:00",
        "meta_object_name": "FENGYUN 1C DEB",
        "meta_object_id": "1999-025MD",
        "meta_epoch": "2025-12-23T11:59:03.776064",
        "meta_mean_motion": 14.17089139,
        "meta_eccentricity": 0.00384718,
        "meta_inclination": 99.2236,
        "meta_ra_of_asc_node": 179.019,
        "meta_arg_of_pericenter": 312.378,
        "meta_mean_anomaly": 103.1342,
        "meta_ephemeris_type": 0,
        "meta_classification_type": "U",
        "meta_norad_cat_id": 30004,
        "meta_element_set_no": 999,
        "meta_rev_at_epoch": 97459,
        "meta_bstar": 0.00066053932,
        "meta_mean_motion_dot": 1.291e-05,
        "meta_mean_motion_ddot": 0,
        "tle_line1": "1 30004U 99025MD  25357.49934926  .00001291  00000+0  66054-3 0  9996",
        "tle_line2": "2 30004  99.2236 179.0190 0038471 312.3780 103.1342 14.17089139974595"
      },
      "geometry": {
        "type": "Point",
        "coordinates": [
          -26.250437415635602,
          -69.68943258700158
        ]
      }
    },
    {
      "type": "Feature",
      "properties": {
        "norad_id": 30005,
        "name": "FENGYUN 1C DEB",
        "group": "fengyun-1c-debris",
        "lat": -76.28477098428301,
        "lon": 1.6909367066817755,
        "alt_km": 1277.6596134521424,
        "timestamp": "2025-12-24T05:51:19.881564+00:00",
        "meta_object_name": "FENGYUN 1C DEB",
        "meta_object_id": "1999-025ME",
        "meta_epoch": "2025-12-22T20:31:01.253568",
        "meta_mean_motion": 13.52242976,
        "meta_eccentricity": 0.0347265,
        "meta_inclination": 99.303,
        "meta_ra_of_asc_node": 318.1949,
        "meta_arg_of_pericenter": 67.8082,
        "meta_mean_anomaly": 295.9515,
        "meta_ephemeris_type": 0,
        "meta_classification_type": "U",
        "meta_norad_cat_id": 30005,
        "meta_element_set_no": 999,
        "meta_rev_at_epoch": 93083,
        "meta_bstar": 0.0013967,
        "meta_mean_motion_dot": 1.307e-05,
        "meta_mean_motion_ddot": 0,
        "tle_line1": "1 30005U 99025ME  25356.85487562  .00001307  00000+0  13967-2 0  9997",
        "tle_line2": "2 30005  99.3030 318.1949 0347265  67.8082 295.9515 13.52242976930837"
      },
      "geometry": {
        "type": "Point",
        "coordinates": [
          1.6909367066817755,
          -76.28477098428301
        ]
      }
    },
    {
      "type": "Feature",
      "properties": {
        "norad_id": 30007,
        "name": "FENGYUN 1C DEB",
        "group": "fengyun-1c-debris",
        "lat": -63.19490576210391,
        "lon": -81.21310008323927,
        "alt_km": 781.8914318810339,
        "timestamp": "2025-12-24T05:51:19.881574+00:00",
        "meta_object_name": "FENGYUN 1C DEB",
        "meta_object_id": "1999-025MG",
        "meta_epoch": "2025-12-23T07:08:57.759936",
        "meta_mean_motion": 14.2549924,
        "meta_eccentricity": 0.00653482,
        "meta_inclination": 99.1784,
        "meta_ra_of_asc_node": 259.1341,
        "meta_arg_of_pericenter": 345.3015,
        "meta_mean_anomaly": 138.1523,
        "meta_ephemeris_type": 0,
        "meta_classification_type": "U",
        "meta_norad_cat_id": 30007,
        "meta_element_set_no": 999,
        "meta_rev_at_epoch": 97506,
        "meta_bstar": 0.0018552237,
        "meta_mean_motion_dot": 4.437e-05,
        "meta_mean_motion_ddot": 0,
        "tle_line1": "1 30007U 99025MG  25357.29789074  .00004437  00000+0  18552-2 0  9993",
        "tle_line2": "2 30007  99.1784 259.1341 0065348 345.3015 138.1523 14.25499240975062"
      },
      "geometry": {
        "type": "Point",
        "coordinates": [
          -81.21310008323927,
          -63.19490576210391
        ]
      }
    },
    {
      "type": "Feature",
      "properties": {
        "norad_id": 30008,
        "name": "FENGYUN 1C DEB",
        "group": "fengyun-1c-debris",
        "lat": 79.70088563542362,
        "lon": -109.09092296029642,
        "alt_km": 655.377640209681,
        "timestamp": "2025-12-24T05:51:19.881584+00:00",
        "meta_object_name": "FENGYUN 1C DEB",
        "meta_object_id": "1999-025MH",
        "meta_epoch": "2025-12-23T21:35:29.321088",
        "meta_mean_motion": 14.66512024,
        "meta_eccentricity": 0.00394971,
        "meta_inclination": 99.3702,
        "meta_ra_of_asc_node": 315.8427,
        "meta_arg_of_pericenter": 157.2642,
        "meta_mean_anomaly": 272.0347,
        "meta_ephemeris_type": 0,
        "meta_classification_type": "U",
        "meta_norad_cat_id": 30008,
        "meta_element_set_no": 999,
        "meta_rev_at_epoch": 99223,
        "meta_bstar": 0.0019755915,
        "meta_mean_motion_dot": 0.00011031,
        "meta_mean_motion_ddot": 0,
        "tle_line1": "1 30008U 99025MH  25357.89964492  .00011031  00000+0  19756-2 0  9994",
        "tle_line2": "2 30008  99.3702 315.8427 0039497 157.2642 272.0347 14.66512024992233"
      },
      "geometry": {
        "type": "Point",
        "coordinates": [
          -109.09092296029642,
          79.70088563542362
        ]
      }
    },
    {
      "type": "Feature",
      "properties": {
        "norad_id": 30009,
        "name": "FENGYUN 1C DEB",
        "group": "fengyun-1c-debris",
        "lat": 58.68437149478473,
        "lon": -111.78493751979991,
        "alt_km": 917.8784624454111,
        "timestamp": "2025-12-24T05:51:19.881595+00:00",
        "meta_object_name": "FENGYUN 1C DEB",
        "meta_object_id": "1999-025MJ",
        "meta_epoch": "2025-12-23T20:44:12.998112",
        "meta_mean_motion": 14.0488718,
        "meta_eccentricity": 0.00643872,
        "meta_inclination": 99.0143,
        "meta_ra_of_asc_node": 52.713,
        "meta_arg_of_pericenter": 303.5018,
        "meta_mean_anomaly": 56.0007,
        "meta_ephemeris_type": 0,
        "meta_classification_type": "U",
        "meta_norad_cat_id": 30009,
        "meta_element_set_no": 999,
        "meta_rev_at_epoch": 96639,
        "meta_bstar": 0.0009393993,
        "meta_mean_motion_dot": 1.492e-05,
        "meta_mean_motion_ddot": 0,
        "tle_line1": "1 30009U 99025MJ  25357.86403933  .00001492  00000+0  93940-3 0  9998",
        "tle_line2": "2 30009  99.0143  52.7130 0064387 303.5018  56.0007 14.04887180966398"
      },
      "geometry": {
        "type": "Point",
        "coordinates": [
          -111.78493751979991,
          58.68437149478473
        ]
      }
    },
    {
      "type": "Feature",
      "properties": {
        "norad_id": 30010,
        "name": "FENGYUN 1C DEB",
        "group": "fengyun-1c-debris",
        "lat": 61.47814145422142,
        "lon": 173.6921094271541,
        "alt_km": 822.9781262592423,
        "timestamp": "2025-12-24T05:51:19.881605+00:00",
        "meta_object_name": "FENGYUN 1C DEB",
        "meta_object_id": "1999-025MK",
        "meta_epoch": "2025-12-23T11:17:54.170304",
        "meta_mean_motion": 14.24994157,
        "meta_eccentricity": 0.00731544,
        "meta_inclination": 99.0695,
        "meta_ra_of_asc_node": 189.9862,
        "meta_arg_of_pericenter": 178.4361,
        "meta_mean_anomaly": 240.8769,
        "meta_ephemeris_type": 0,
        "meta_classification_type": "U",
        "meta_norad_cat_id": 30010,
        "meta_element_set_no": 999,
        "meta_rev_at_epoch": 98413,
        "meta_bstar": 0.00011775147,
        "meta_mean_motion_dot": 2.36e-06,
        "meta_mean_motion_ddot": 0,
        "tle_line1": "1 30010U 99025MK  25357.47076586  .00000236  00000+0  11775-3 0  9998",
        "tle_line2": "2 30010  99.0695 189.9862 0073154 178.4361 240.8769 14.24994157984134"
      },
      "geometry": {
        "type": "Point",
        "coordinates": [
          173.6921094271541,
          61.47814145422142
        ]
      }
    },
    {
      "type": "Feature",
      "properties": {
        "norad_id": 30012,
        "name": "FENGYUN 1C DEB",
        "group": "fengyun-1c-debris",
        "lat": -16.260978610421024,
        "lon": -131.1990055306398,
        "alt_km": 931.4117830205632,
        "timestamp": "2025-12-24T05:51:19.881615+00:00",
        "meta_object_name": "FENGYUN 1C DEB",
        "meta_object_id": "1999-025MM",
        "meta_epoch": "2025-12-23T03:01:36.323904",
        "meta_mean_motion": 13.85772635,
        "meta_eccentricity": 0.01372221,
        "meta_inclination": 99.4628,
        "meta_ra_of_asc_node": 50.4606,
        "meta_arg_of_pericenter": 118.1806,
        "meta_mean_anomaly": 262.8316,
        "meta_ephemeris_type": 0,
        "meta_classification_type": "U",
        "meta_norad_cat_id": 30012,
        "meta_element_set_no": 999,
        "meta_rev_at_epoch": 95692,
        "meta_bstar": 0.00027804922,
        "meta_mean_motion_dot": 2.98e-06,
        "meta_mean_motion_ddot": 0,
        "tle_line1": "1 30012U 99025MM  25357.12611486  .00000298  00000+0  27805-3 0  9995",
        "tle_line2": "2 30012  99.4628  50.4606 0137222 118.1806 262.8316 13.85772635956925"
      },
      "geometry": {
        "type": "Point",
        "coordinates": [
          -131.1990055306398,
          -16.260978610421024
        ]
      }
    }
  ]
}